LEMUR-2-JENNYBARNA      
1 42753U 17019C   17226.93763057  .00000987  00000-0  48900-4 0  9996
2 42753  51.6404 118.7691 0010596 187.5843 172.4978 15.27651124 10220
LEMUR-2-ROBMOORE        
1 42754U 17019D   17226.94280573  .00000416  00000-0  28233-4 0  9999
2 42754  51.6424 118.8010 0010621 191.3066 168.7676 15.27493775 10250
LEMUR-2-SPIROVISION     
1 42755U 17019E   17226.94137116  .00000805  00000-0  42383-4 0  9998
2 42755  51.6421 118.7912 0010598 190.8134 169.2619 15.27554049 10144
UCLSAT                  
1 42765U 17036A   17226.91149299  .00001177  00000-0  56461-4 0  9995
2 42765  97.4453 286.0612 0013729  72.4141 287.8593 15.20786628  8144
LITUANICASAT-2          
1 42768U 17036D   17227.14818742  .00001869  00000-0  90455-4 0  9999
2 42768  97.4454 286.2036 0017756  60.8492 299.4517 15.19696481  8054
INFLATESAIL             
1 42770U 17036F   17226.69146099  .00234333  00000-0  62516-2 0  9999
2 42770  97.4467 286.3575 0008810 139.2600 220.9305 15.37153984  7951
LEMUR-2-SHAINAJOHL      
1 42771U 17036G   17227.14237703  .00001435  00000-0  69928-4 0  9995
2 42771  97.4455 286.2125 0016874  60.3832 299.9079 15.19850832  7993
LEMUR-2-XUENITERENCE    
1 42772U 17036H   17226.94294192  .00001378  00000-0  67169-4 0  9999
2 42772  97.4454 286.0194 0016536  60.7938 299.4949 15.19903801  7966
LEMUR-2-LUCYBRYCE       
1 42773U 17036J   17226.67783134  .00001782  00000-0  85793-4 0  9991
2 42773  97.4455 285.7624 0016342  61.6841 298.6040 15.19963221  7921
LEMUR-2-KUNGFOO         
1 42774U 17036K   17226.74305782  .00001358  00000-0  66138-4 0  9990
2 42774  97.4457 285.8300 0016304  61.1774 299.1095 15.19960523  7922
AALTO-1                 
1 42775U 17036L   17226.93761682  .00000796  00000-0  40062-4 0  9990
2 42775  97.4455 286.0280 0015888  59.4371 300.8429 15.20011070  7961
URSA MAIOR              
1 42776U 17036M   17226.80466623  .00000823  00000-0  41237-4 0  9990
2 42776  97.4457 285.9014 0015760  60.2703 300.0098 15.20049214  7948
COMPASS 2               
1 42777U 17036N   17226.79531660  .00001505  00000-0  72174-4 0  9995
2 42777  97.4466 285.9202 0014910  64.7920 295.4859 15.20359258  7937
LEMUR-2-LYNSEY-SYMO     
1 42779U 17036Q   17226.85434529  .00001785  00000-0  84490-4 0  9994
2 42779  97.4459 285.9882 0014525  70.8846 289.3960 15.20566249  7937
LEMUR-2-LISASAURUS      
1 42780U 17036R   17226.91934917  .00001423  00000-0  68005-4 0  9992
2 42780  97.4455 286.0522 0014437  70.4178 289.8615 15.20574147  7954
LEMUR-2-SAM-AMELIA      
1 42781U 17036S   17226.78684496  .00001785  00000-0  84393-4 0  9991
2 42781  97.4455 285.9226 0014362  71.3678 288.9115 15.20617752  7928
LEMUR-2-MCPEAKE         
1 42782U 17036T   17226.72008810  .00001713  00000-0  81040-4 0  9993
2 42782  97.4458 285.8604 0014225  71.3907 288.8871 15.20642928  7914
DIAMOND RED             
1 42783U 17036U   17226.71962378  .00000998  00000-0  48594-4 0  9992
2 42783  97.4456 285.8598 0014306  72.6643 287.6156 15.20614726  7925
PEGASUS                 
1 42784U 17036V   17226.91598400  .00001084  00000-0  52458-4 0  9997
2 42784  97.4456 286.0570 0014258  72.2229 288.0561 15.20651662  7959
DIAMOND GREEN           
1 42785U 17036W   17226.91583235  .00000769  00000-0  38147-4 0  9996
2 42785  97.4456 286.0578 0014208  72.1607 288.1177 15.20640745  8025
DIAMOND BLUE            
1 42786U 17036X   17226.65106924  .00000829  00000-0  40813-4 0  9994
2 42786  97.4456 285.7992 0014060  73.3267 286.9511 15.20676691  7984
NUDTSAT                 
1 42787U 17036Y   17226.84633339  .00001559  00000-0  73735-4 0  9991
2 42787  97.4456 285.9965 0013909  73.0060 287.2698 15.20792508  7780
SUCHAI                  
1 42788U 17036Z   17226.84700121  .00001282  00000-0  61286-4 0  9997
2 42788  97.4455 285.9953 0013919  72.7563 287.5194 15.20754742  8011
SKCUBE                  
1 42789U 17036AA  17226.91137114  .00001200  00000-0  57509-4 0  9995
2 42789  97.4454 286.0617 0013727  72.5621 287.7113 15.20792023  7948
VZLUSAT-1               
1 42790U 17036AB  17226.71142313  .00001415  00000-0  67074-4 0  9998
2 42790  97.4452 285.8681 0013473  73.6492 286.6224 15.20876885  7919
ROBUSTA-1B              
1 42792U 17036AD  17226.84136496  .00001252  00000-0  59661-4 0  9991
2 42792  97.4452 286.0001 0013308  73.9896 286.2805 15.20915826  7941
CICERO 6                
1 42793U 17036AE  17226.83453098  .00000902  00000-0  43620-4 0  9990
2 42793  97.4452 286.0088 0012388  74.7514 285.5090 15.21091047  8018
D-SAT                   
1 42794U 17036AF  17226.83200468  .00000729  00000-0  35813-4 0  9994
2 42794  97.4449 286.0105 0011525  72.7141 287.5354 15.21156612  7936
TOKI                    
1 42820U 98067MU  17227.03741250  .00009360  00000-0  14049-3 0  9996
2 42820  51.6394 104.6439 0004121 106.8809 253.2634 15.55655651  6019
GHANASAT-1              
1 42821U 98067MV  17227.03846319  .00009055  00000-0  13640-3 0  9996
2 42821  51.6395 104.6509 0004159 109.0766 251.0676 15.55602435  5997
MAZAALAI (NUMSAT-1)     
1 42822U 98067MW  17226.91058367  .00009162  00000-0  13804-3 0  9992
2 42822  51.6396 105.2972 0004196 110.8044 249.3397 15.55582063  5994
BRAC ONNESHA            
1 42823U 98067MX  17227.10442331  .00009400  00000-0  14155-3 0  9998
2 42823  51.6398 104.3430 0007737 125.0023 235.1695 15.55545536  6006
NIGERIAEDUSAT-1         
1 42824U 98067MY  17226.91302743  .00009069  00000-0  13713-3 0  9999
2 42824  51.6398 105.3147 0007574 125.3958 234.7742 15.55483953  5991
LEMUR-2-GREENBERG       
1 42837U 17042N   17227.21273403  .00000350  00000-0  40774-4 0  9993
2 42837  97.6115 135.7901 0014489 130.5994 229.6487 14.90989256  4755
LEMUR-2-ANDIS           
1 42838U 17042P   17227.21233675  .00000546  00000-0  60518-4 0  9996
2 42838  97.6115 135.7902 0014545 130.9862 229.2618 14.91012776  4755
LEMUR-2-MONSON          
1 42839U 17042Q   17226.94161787  .00000269  00000-0  32537-4 0  9992
2 42839  97.6114 135.5341 0014259 130.8923 229.3534 14.91112274  4717
LEMUR-2-FURIAUS         
1 42840U 17042R   17226.94106648  .00000389  00000-0  44542-4 0  9991
2 42840  97.6113 135.5346 0014295 130.9646 229.2813 14.91142132  4700
LEMUR-2-PETERG          
1 42841U 17042S   17226.93818931  .00000243  00000-0  29819-4 0  9995
2 42841  97.6114 135.5384 0014059 129.5656 230.6807 14.91276754  4715
LEMUR-2-DEMBITZ         
1 42842U 17042T   17226.93773336  .00000216  00000-0  27105-4 0  9991
2 42842  97.6113 135.5386 0014036 130.0358 230.2094 14.91296836  4715
LEMUR-2-ZACHARY         
1 42845U 17042W   17226.93291381  .00000168  00000-0  22182-4 0  9995
2 42845  97.6062 135.5214 0014262 135.1182 225.1193 14.91525032  4708
FLOCK 2K-03             
1 42850U 17042AB  17226.81256540  .00002560  00000-0  83832-4 0  9993
2 42850  96.9992 134.1168 0013846 134.8855 225.3514 15.32426795  4634
FLOCK 2K-04             
1 42851U 17042AC  17226.81318902  .00001508  00000-0  50436-4 0  9990
2 42851  96.9999 134.1170 0013385 135.1349 225.0978 15.32365888  4631
FLOCK 2K-01             
1 42852U 17042AD  17227.20443230  .00001554  00000-0  51833-4 0  9991
2 42852  96.9999 134.4882 0013399 133.2998 226.9365 15.32396160  4692
FLOCK 2K-02             
1 42853U 17042AE  17226.81240108  .00002285  00000-0  75083-4 0  9992
2 42853  96.9997 134.1189 0013350 133.9736 226.2610 15.32431770  4639
FLOCK 2K-47             
1 42854U 17042AF  17226.81174812  .00005403  00000-0  17426-3 0  9992
2 42854  96.9991 134.1177 0013330 133.6505 226.5845 15.32459473  4633
FLOCK 2K-48             
1 42855U 17042AG  17226.81153531  .00001344  00000-0  45063-4 0  9997
2 42855  97.0000 134.1193 0013247 133.6304 226.6040 15.32447009  4639
FLOCK 2K-45             
1 42856U 17042AH  17226.81083366  .00003817  00000-0  12356-3 0  9991
2 42856  96.9992 134.1195 0013404 133.0971 227.1396 15.32514999  4632
FLOCK 2K-24             
1 42857U 17042AJ  17226.81030324  .00002699  00000-0  88037-4 0  9995
2 42857  96.9993 134.1193 0013262 132.6376 227.5987 15.32519618  4631
FLOCK 2K-46             
1 42858U 17042AK  17227.20196732  .00003543  00000-0  11479-3 0  9990
2 42858  96.9994 134.4917 0013467 131.3812 228.8591 15.32535337  4695
FLOCK 2K-23             
1 42859U 17042AL  17226.81013360  .00005718  00000-0  18382-3 0  9998
2 42859  96.9994 134.1210 0013349 132.7668 227.4701 15.32539351  4634
FLOCK 2K-21             
1 42860U 17042AM  17226.80941908  .00003996  00000-0  12897-3 0  9998
2 42860  96.9993 134.1217 0013394 131.9993 228.2393 15.32588629  4632
FLOCK 2K-22             
1 42861U 17042AN  17226.80901395  .00005762  00000-0  18483-3 0  9995
2 42861  96.9992 134.1227 0013431 132.0200 228.2189 15.32603906  4637
FLOCK 2K-07             
1 42862U 17042AP  17226.80823235  .00001656  00000-0  54715-4 0  9999
2 42862  96.9998 134.1233 0013438 131.5572 228.6825 15.32613126  4641
FLOCK 2K-08             
1 42863U 17042AQ  17226.80767136  .00005728  00000-0  18331-3 0  9994
2 42863  96.9990 134.1229 0013608 131.5135 228.7279 15.32682340  4630
FLOCK 2K-05             
1 42864U 17042AR  17226.80729804  .00006586  00000-0  21036-3 0  9994
2 42864  96.9992 134.1241 0013621 131.5955 228.6458 15.32687079  4634
FLOCK 2K-40             
1 42865U 17042AS  17226.80694575  .00005149  00000-0  16490-3 0  9993
2 42865  96.9994 134.1251 0013555 131.7957 228.4447 15.32703873  4635
FLOCK 2K-39             
1 42866U 17042AT  17226.74161530  .00006585  00000-0  21024-3 0  9991
2 42866  96.9990 134.0629 0013610 131.7589 228.4819 15.32703383  4621
FLOCK 2K-37             
1 42867U 17042AU  17226.74152544  .00006554  00000-0  20924-3 0  9991
2 42867  96.9993 134.0632 0013522 131.6210 228.6194 15.32707954  4627
FLOCK 2K-38             
1 42868U 17042AV  17226.74091136  .00008334  00000-0  26514-3 0  9990
2 42868  96.9989 134.0640 0013639 131.2551 228.9869 15.32735593  4627
